H1 CPF 01  gfz 2021 03 21 01  5801 tandemx   
H2 1003001  6202 36605    2021 03 21 00 59 42 2021 03 26 00 00 42   120 1 1  0 0 0
H9
10 0 59295  33102.000000  0   -3514472.673   4576478.087   3753756.173
10 0 59295  33222.000000  0   -3035283.169   4258741.397   4474163.134
10 0 59295  33342.000000  0   -2509335.123   3857775.163   5115813.930
10 0 59295  33462.000000  0   -1947238.506   3379886.380   5667446.900
10 0 59295  33582.000000  0   -1360104.723   2832912.224   6119394.908
10 0 59295  33702.000000  0    -759323.898   2226085.106   6463749.171
10 0 59295  33822.000000  0    -156343.472   1569872.141   6694490.162
10 0 59295  33942.000000  0     437549.429    875792.106   6807587.900
10 0 59295  34062.000000  0    1011439.016    156211.912   6801067.276
10 0 59295  34182.000000  0    1554980.277   -575872.836   6675040.490
10 0 59295  34302.000000  0    2058584.870  -1307072.109   6431706.032
10 0 59295  34422.000000  0    2513590.340  -2023845.511   6075313.002
10 0 59295  34542.000000  0    2912411.092  -2712753.496   5612092.440
10 0 59295  34662.000000  0    3248667.569  -3360710.986   5050153.650
10 0 59295  34782.000000  0    3517291.139  -3955239.115   4399348.193
10 0 59295  34902.000000  0    3714604.077  -4484710.482   3671102.138
10 0 59295  35022.000000  0    3838371.171  -4938582.676   2878217.478
10 0 59295  35142.000000  0    3887822.114  -5307614.389   2034646.892
10 0 59295  35262.000000  0    3863644.055  -5584058.928   1155244.863
10 0 59295  35382.000000  0    3767943.740  -5761829.560    255499.919
10 0 59295  35502.000000  0    3604180.943  -5836632.632   -648744.761
10 0 59295  35622.000000  0    3377074.540  -5806066.666  -1541579.842
10 0 59295  35742.000000  0    3092481.664  -5669681.426  -2407318.411
10 0 59295  35862.000000  0    2757256.202  -5428998.559  -3230778.215
10 0 59295  35982.000000  0    2379088.196  -5087491.742  -3997552.873
10 0 59295  36102.000000  0    1966328.882  -4650527.821  -4694264.267
10 0 59295  36222.000000  0    1527807.127  -4125271.855  -5308791.507
10 0 59295  36342.000000  0    1072642.666  -3520559.507  -5830474.069
10 0 59295  36462.000000  0     610058.447  -2846740.314  -6250286.733
10 0 59295  36582.000000  0     149196.080  -2115495.179  -6560984.489
10 0 59295  36702.000000  0    -301061.220  -1339631.232  -6757216.446
10 0 59295  36822.000000  0    -732255.029   -532858.195  -6835608.564
10 0 59295  36942.000000  0   -1136505.872    290450.385  -6794814.960
10 0 59295  37062.000000  0   -1506653.756   1115506.862  -6635537.514
10 0 59295  37182.000000  0   -1836381.931   1927368.297  -6360515.014
10 0 59295  37302.000000  0   -2120322.532   2711200.107  -5974481.502
10 0 59295  37422.000000  0   -2354144.164   3452543.068  -5484094.550
10 0 59295  37542.000000  0   -2534618.507   4137578.630  -4897831.418
10 0 59295  37662.000000  0   -2659666.145   4753389.081  -4225854.237
10 0 59295  37782.000000  0   -2728379.284   5288206.465  -3479843.027
10 0 59295  37902.000000  0   -2741020.158   5731643.628  -2672800.483
10 0 59295  38022.000000  0   -2698996.106   6074905.627  -1818832.159
10 0 59295  38142.000000  0   -2604810.718   6310974.875   -932900.596
10 0 59295  38262.000000  0   -2461991.673   6434761.843    -30561.174
10 0 59295  38382.000000  0   -2274998.458   6443222.959    872314.930
10 0 59295  38502.000000  0   -2049109.026   6335437.684   1759831.175
10 0 59295  38622.000000  0   -1790288.039   6112638.553   2616356.122
10 0 59295  38742.000000  0   -1505042.396   5778198.196   3426806.426
10 0 59295  38862.000000  0   -1200268.002   5337574.433   4176918.063
10 0 59295  38982.000000  0    -883091.502   4798214.557   4853501.866
10 0 59295  39102.000000  0    -560708.264   4169419.277   5444677.150
10 0 59295  39222.000000  0    -240223.314   3462173.356   5940076.711
10 0 59295  39342.000000  0      71500.818   2688945.440   6331025.334
10 0 59295  39462.000000  0     367987.629   1863461.250   6610685.321
10 0 59295  39582.000000  0     643278.618   1000455.910   6774170.524
10 0 59295  39702.000000  0     892050.984    115408.404   6818625.816
10 0 59295  39822.000000  0    1109719.206   -775734.974   6743273.781
10 0 59295  39942.000000  0    1292519.084  -1656847.578   6549428.575
10 0 59295  40062.000000  0    1437573.069  -2511913.803   6240474.717
10 0 59295  40182.000000  0    1542935.721  -3325321.211   5821812.096
10 0 59295  40302.000000  0    1607618.108  -4082148.332   5300766.127
10 0 59295  40422.000000  0    1631591.576  -4768441.242   4686464.439
10 0 59295  40542.000000  0    1615771.401  -5371476.480   3989683.841
10 0 59295  40662.000000  0    1561979.749  -5880007.023   3222665.457
10 0 59295  40782.000000  0    1472887.749  -6284480.961   2398899.185
10 0 59295  40902.000000  0    1351938.717  -6577229.177   1532885.477
10 0 59295  41022.000000  0    1203254.236  -6752619.627    639876.544
10 0 59295  41142.000000  0    1031525.110  -6807172.160   -264399.091
10 0 59295  41262.000000  0     841888.416  -6739630.971  -1164023.838
10 0 59295  41382.000000  0     639795.349  -6550988.525  -2043181.733
10 0 59295  41502.000000  0     430874.535  -6244463.892  -2886443.265
10 0 59295  41622.000000  0     220793.576  -5825438.835  -3679040.726
10 0 59295  41742.000000  0      15121.706  -5301351.745  -4407129.184
10 0 59295  41862.000000  0    -180803.026  -4681551.929  -5058026.096
10 0 59295  41982.000000  0    -361998.437  -3977120.889  -5620425.877
10 0 59295  42102.000000  0    -523952.199  -3200664.040  -6084587.595
10 0 59295  42222.000000  0    -662722.607  -2366077.990  -6442492.818
10 0 59295  42342.000000  0    -775024.811  -1488298.316  -6687972.527
10 0 59295  42462.000000  0    -858301.067   -583033.272  -6816802.831
10 0 59295  42582.000000  0    -910773.866    333513.698  -6826770.081
10 0 59295  42702.000000  0    -931481.059   1244927.448  -6717703.431
10 0 59295  42822.000000  0    -920293.063   2134867.310  -6491477.405
10 0 59295  42942.000000  0    -877911.760   2987352.506  -6151983.436
10 0 59295  43062.000000  0    -805850.788   3787044.715  -5705071.616
10 0 59295  43182.000000  0    -706397.673   4519522.861  -5158459.740
10 0 59295  43302.000000  0    -582558.146   5171545.325  -4521611.818
10 0 59295  43422.000000  0    -437984.010   5731296.125  -3805585.041
10 0 59295  43542.000000  0    -276885.089   6188608.335  -3022846.423
10 0 59295  43662.000000  0    -103926.831   6535160.094  -2187062.339
10 0 59295  43782.000000  0      75884.054   6764638.975  -1312862.828
10 0 59295  43902.000000  0     257323.504   6872869.378   -415584.464
10 0 59295  44022.000000  0     435081.006   6857898.837    489003.217
10 0 59295  44142.000000  0     603894.086   6720040.480   1384982.442
10 0 59295  44262.000000  0     758682.049   6461868.949   2256576.417
10 0 59295  44382.000000  0     894674.644   6088170.331   3088435.198
10 0 59295  44502.000000  0    1007533.834   5605849.805   3865913.197
10 0 59295  44622.000000  0    1093467.301   5023797.124   4575331.967
10 0 59295  44742.000000  0    1149327.894   4352713.374   5204227.408
10 0 59295  44862.000000  0    1172696.288   3604900.387   5741565.806
10 0 59295  44982.000000  0    1161949.063   2794027.681   6177932.351
10 0 59295  45102.000000  0    1116306.938   1934875.728   6505691.559
10 0 59295  45222.000000  0    1035864.028   1043061.404   6719115.243
10 0 59295  45342.000000  0     921597.571    134751.099   6814476.110
10 0 59295  45462.000000  0     775357.905   -773631.262   6790108.575
10 0 59295  45582.000000  0     599838.452  -1665700.913   6646437.572
10 0 59295  45702.000000  0     398526.088  -2525407.711   6385971.745
10 0 59295  45822.000000  0     175632.682  -3337326.176   6013262.614
10 0 59295  45942.000000  0     -63990.434  -4086933.781   5534826.982
10 0 59295  46062.000000  0    -314953.297  -4760871.927   4959038.693
10 0 59295  46182.000000  0    -571442.264  -5347189.891   4295990.676
10 0 59295  46302.000000  0    -827348.611  -5835567.618   3557323.445
10 0 59295  46422.000000  0   -1076407.077  -6217507.064   2756021.854
10 0 59295  46542.000000  0   -1312340.360  -6486489.300   1906186.402
10 0 59295  46662.000000  0   -1529006.875  -6638095.307   1022782.647
10 0 59295  46782.000000  0   -1720549.511  -6670084.879    121370.258
10 0 59295  46902.000000  0   -1881538.093  -6582430.357   -782179.937
10 0 59295  47022.000000  0   -2007103.634  -6377306.031  -1671974.183
10 0 59295  47142.000000  0   -2093061.333  -6059033.731  -2532383.316
10 0 59295  47262.000000  0   -2136019.335  -5633985.889  -3348323.985
10 0 59295  47382.000000  0   -2133470.083  -5110447.968  -4105527.080
10 0 59295  47502.000000  0   -2083862.004  -4498445.122  -4790786.616
10 0 59295  47622.000000  0   -1986650.565  -3809539.390  -5392184.997
10 0 59295  47742.000000  0   -1842328.197  -3056602.705  -5899292.427
10 0 59295  47862.000000  0   -1652432.487  -2253570.171  -6303338.482
10 0 59295  47982.000000  0   -1419532.303  -1415178.225  -6597352.542
10 0 59295  48102.000000  0   -1147193.412   -556694.481  -6776272.236
10 0 59295  48222.000000  0    -839924.535    306356.666  -6837020.898
10 0 59295  48342.000000  0    -503103.258   1158468.238  -6778554.119
10 0 59295  48462.000000  0    -142883.907   1984421.890  -6601875.479
10 0 59295  48582.000000  0     233910.720   2769552.510  -6310021.912
10 0 59295  48702.000000  0     619914.976   3500004.790  -5908019.092
10 0 59295  48822.000000  0    1007360.580   4162976.363  -5402802.974
10 0 59295  48942.000000  0    1388228.013   4746943.119  -4803111.268
10 0 59295  49062.000000  0    1754408.375   5241865.591  -4119344.259
10 0 59295  49182.000000  0    2097872.311   5639370.025  -3363393.744
10 0 59295  49302.000000  0    2410842.080   5932900.080  -2548444.164
10 0 59295  49422.000000  0    2685963.893   6117836.761  -1688747.423
10 0 59295  49542.000000  0    2916476.028   6191582.075   -799373.820
99
